[{"OBJECT_NAME":"HYPERFIELD-1A","OBJECT_ID":"2024-149CY","EPOCH":"2026-03-09T18:21:25.814304","MEAN_MOTION":15.29681349,"ECCENTRICITY":0.00038648,"INCLINATION":97.3842,"RA_OF_ASC_NODE":149.5066,"ARG_OF_PERICENTER":313.7844,"MEAN_ANOMALY":46.3076,"EPHEMERIS_TYPE":0,"CLASSIFICATION_TYPE":"U","NORAD_CAT_ID":60562,"ELEMENT_SET_NO":999,"REV_AT_EPOCH":8683,"BSTAR":0.00030052114,"MEAN_MOTION_DOT":8.569e-5,"MEAN_MOTION_DDOT":0},{"OBJECT_NAME":"STARLINK-34181","OBJECT_ID":"2025-111X","EPOCH":"2026-03-09T10:20:04.255584","MEAN_MOTION":15.27619505,"ECCENTRICITY":0.00015869,"INCLINATION":42.998,"RA_OF_ASC_NODE":79.3386,"ARG_OF_PERICENTER":254.8289,"MEAN_ANOMALY":105.2387,"EPHEMERIS_TYPE":0,"CLASSIFICATION_TYPE":"U","NORAD_CAT_ID":64144,"ELEMENT_SET_NO":999,"REV_AT_EPOCH":4542,"BSTAR":0.0011024311,"MEAN_MOTION_DOT":0.00030236,"MEAN_MOTION_DDOT":0}]
